IRIDIUM 7 [-]           
1 24793U 97020B   23324.35520976  .00000384  00000+0  12804-3 0  9996
2 24793  86.3980  57.6704 0001988 100.9728 259.1692 14.34979348389436
IRIDIUM 5 [-]           
1 24795U 97020D   23324.59498309  .00002951  00000+0  29279-3 0  9994
2 24795  86.3937 346.4562 0127978  26.7025 334.0712 14.85348932399931
IRIDIUM 4 [-]           
1 24796U 97020E   23324.49583733  .00000415  00000+0  13648-3 0  9996
2 24796  86.3978  54.8709 0001949  93.5694 266.5726 14.35888214389977
IRIDIUM 914 [-]         
1 24836U 97030A   23324.52935336  .00000544  00000+0  16764-3 0  9991
2 24836  86.3944  65.1389 0001378  35.0341 325.0948 14.39706357524418
IRIDIUM 16 [-]          
1 24841U 97030F   23324.61509597  .00000548  00000+0  17614-3 0  9992
2 24841  86.4022  86.5503 0003649 124.0318 236.1226 14.37592294384420
IRIDIUM 911 [-]         
1 24842U 97030G   23324.61001213  .00000706  00000+0  19204-3 0  9998
2 24842  86.4448  85.8530 0013516 204.4805 155.5757 14.46133785392005
IRIDIUM 17 [-]          
1 24870U 97034B   23324.52153910  .00000513  00000+0  16771-3 0  9997
2 24870  86.3934 116.2567 0003730  93.1458 267.0166 14.36682155381042
IRIDIUM 920 [-]         
1 24871U 97034C   23324.44638756  .00000552  00000+0  16768-3 0  9994
2 24871  86.3954  96.8509 0011981 167.3677 192.7824 14.40404750383818
